GOES 7 [-]              
1 17561U 87022A   17345.24344209 -.00000299  00000-0  00000+0 0  9997
2 17561  15.1400   3.9676 0007127 296.0075 169.9516  0.99899413 95913
